#dP2020 11 24  0  0  0.00000000      96 __u+U ITR00 FIT  IAC
## 2133 172800.00000000   900.00000000 59177 0.0000000000000
+  116   C06C07C08C09C10C11C12C13C14C16C19C20C21C22C23C24C25
+        C26C27C28C29C30C32C33C34C35C36C37C38C39C40C43C44C45
+        C46E01E02E03E04E05E07E08E09E11E12E13E14E15E18E19E21
+        E24E25E26E27E30E31E33E36G01G02G03G04G05G06G07G08G09
+        G10G11G12G13G14G15G16G17G18G19G20G21G22G23G24G25G26
+        G27G28G29G30G31G32J01J02J03R01R02R03R04R05R07R08R09
+        R12R13R14R15R16R17R18R19R20R21R22R23R24R25  0  0  0
++         8  7  7  8  8  9  8  8  8  8  5  7  7  8  7  7  7
++         8  6  8  7  7  6  7  7  8  6  8 10 10  9  7 10  9
++         8  6  6  7  6  5  7  7  6  7  7  5  6  7  6  3  6
++         6  6  6  6  6  6  6  7  5  6  7  7  6  6  5  7  5
++         8  7  5  6  6  6  6  5  7  5  6  6  6  7  6  5  9
++         7  5  6  5  6  7  6  7  8  6  6  6  6  6  7  6  6
++         6  8  7  7  7  5  6  7  6  5  7  5  7  7  0  0  0
%c M  cc GPS ccc cccc cccc cccc cccc ccccc ccccc ccccc ccccc
%c cc cc ccc ccc cccc cccc cccc cccc ccccc ccccc ccccc ccccc
%f  0.0000000  0.000000000  0.00000000000  0.000000000000000
%f  0.0000000  0.000000000  0.00000000000  0.000000000000000
%i    0    0    0    0      0      0      0      0         0
%i    0    0    0    0      0      0      0      0         0
/* INFORMATION & ANALYSIS CENTER (IAC)      ULTRA-RAPID DATA
/* S/V CLOCKS ARE ALIGNED TO GNSS TIME                      
/* G:C1WC2W R:C1PC2P E:C1XC5X C:C2IC6I J:C1CC2S             
/* PCV:IGS14_2132 OL/AL:FES2004  NONE     YN ORB:CoN CLK:CoN
*  2020 11 24  7  0  0.00000000
PC06 -16468.455632  20779.949810  33110.432215    162.055077
PC07 -22534.380728  35583.803058  -4962.094765    -67.814191
PC08  -5339.035315  32357.735531 -26183.108406   -727.111543
PC09   1566.379796  25516.472783  33839.682601    917.286284
PC10 -10434.059692  36958.975140 -17661.688809   -135.859619
PC11  -2559.674611  15394.064324 -23062.365221   -772.541117
PC12 -20164.413230   4735.343684 -18675.728078    627.172643
PC13   3963.930277  39082.441989 -14824.200282    757.955353
PC14 -12051.117618  21263.682774  13530.712367    308.826358
PC16 -13955.439803  21141.267813  33752.655112   -616.274610
PC19   2721.273066 -19478.644162 -19777.728013    629.481723
PC20  18517.127098 -19884.282046  -6304.421139   -901.593911
PC21 -23988.164878   8396.758571 -11534.930544   -732.188928
PC22 -15113.036107  -7769.399302 -22145.943869   -798.513452
PC23  13669.380735  18417.500561 -15883.629288   -907.019899
PC24  -9384.916026  20393.106964  16554.278128   -723.453189
PC25   4144.309349  27584.071358    -49.171833   -837.882880
PC26 -15954.346635   2632.060548  22738.672444    916.312392
PC27  25311.562716   2347.352255  11515.774528    438.066048
PC28  23070.698525  14516.452364  -5946.522109   -142.162312
PC29  -8025.071517 -17884.871405  19859.979869    315.514628
PC30  12723.352765 -11417.096589  22060.994337    408.152815
PC32  23919.775836  -8523.720135  11574.908210   -885.102141
PC33  -2707.663034  19559.660439  19720.049529   -846.918916
PC34 -12124.249314  11793.751056 -22195.633334   -801.764092
PC35 -23403.296729 -13854.517744   6186.184944 999999.999999
PC36  -3332.893976 -27708.204621   -201.282314   -826.337389
PC37  16101.816121  -1429.089231 -22726.201113   -871.969045
PC38  -3677.934541  35420.600454 -22438.436672    113.896026
PC39  -8552.478673  22977.101814  34285.765021     25.535172
PC40 -19208.619298  34216.086835 -15600.130453    104.158677
PC43   7467.938504  17995.414327 -19985.828042   -476.054838
PC44 -25441.777781  -1573.360048 -11326.435429 999999.999999
PC45 -13660.041481 -18373.184886  15980.090096 999999.999999
PC46   8803.198797 -21043.671533 -16092.376068    530.527958
PE01  -1695.459183  27461.337940 -10898.931575   -989.261863
PE02   1612.745817 -27442.743570  11005.808825    178.704649
PE03  -1875.815145 -17071.377646 -24117.803357   -368.496166
PE04  21759.204143   8743.876413  18059.132729   -654.192477
PE05  19409.105781 -15500.494856 -16106.095790   -326.843713
PE07 -29172.350312   4890.720742  -1241.136024   -465.916915
PE08 -22010.682538  -8344.431982 -17960.606079   6087.084818
PE09  29118.864812  -5157.881336   1105.936195   5854.952051
PE11  21022.914924   3305.254312  20573.975818   6767.602370
PE12  21520.683266  19861.253440   4341.578811   5490.754434
PE13 -21116.490329  -3605.202206 -20420.629301    407.056171
PE14 -10066.513420 -14637.331161  16558.980255  -1236.277717
PE15 -21611.926898 -19737.301248  -4431.850124    842.305530
PE18   3894.512375  20517.553348 -24235.960770  -1350.624359
PE19   -798.897619  17305.507684  23996.340529    136.163444
PE21 -13776.454396  25130.282157   7399.584606   -633.632520
PE24  18290.640481  -7434.774627 -22066.471128   -599.712223
PE25  13843.973685 -25057.664861  -7530.116456   -520.864880
PE26  -7880.122983  15171.439285 -24154.507224   2460.170104
PE27 -18236.695374   8073.780384  21877.896186     86.310793
PE30 -11560.251939 -14340.717368  23172.434951   3398.906334
PE31  11952.862176  13602.011708 -23401.099744   -475.951727
PE33   9409.341325  24242.358393 -14128.317640   -463.587971
PE36   8210.539398 -14633.323373  24393.629961    476.823613
PG01  17602.687766   6998.758787  18517.845037    804.166596
PG02 -14422.762264 -22278.453324   -468.614149   -546.350731
PG03  18271.910761  -5370.432140  18390.045982    -12.106326
PG04  26539.599215    842.222868  -1294.067589   -158.237624
PG05  -8389.840030 -14684.346249 -20592.402589    -26.666116
PG06  -3598.410763 -23512.517308  11836.077518     -2.175972
PG07  11665.402501 -10211.192903 -21190.692814   -420.561210
PG08  24738.563282   5965.979475  -8079.886484     -0.482172
PG09  22042.158871  -8384.331747 -12300.464835   -293.336393
PG10 -10877.838406  23647.413098   4610.787000     -0.146412
PG11  23387.090861  10035.239811   6462.815583   -100.055366
PG12 -17483.092412   1460.823067  19655.853105     36.123751
PG13 -18044.308313 -13148.470992 -14609.812882     68.055790
PG14  13687.352121 -22652.153417   2238.666962     38.762304
PG15 -25507.846854  -3666.473340  -7529.741191   -187.890643
PG16   6960.267282  14590.990860 -21202.244518   -240.825177
PG17   5650.986492 -14269.153615  22107.160638    358.086452
PG18 -10222.537797  12273.005312 -21219.628753    325.127060
PG19  -2011.326729 -14878.289933  21633.884936    -74.214245
PG20 -15384.634954  19905.197611  -8159.934064    525.892889
PG21  19450.068615  13507.752743  13134.840139     71.255412
PG22  15944.804511   3228.131282  21172.887062   -725.497495
PG23 -16447.185144  20020.013740  -5800.049167    103.760785
PG24 -19379.931392  -9791.437159  15325.882432      6.007433
PG25 -18621.290843  14327.207611  11877.085817     27.604454
PG26  -1450.194199  22603.906404 -13702.902227      3.867494
PG27  16087.677806  12333.194074 -17491.326577    -20.399273
PG28  11585.282790 -23119.680098   7019.815081    651.662012
PG29 -23680.275049   4914.267551 -11069.532013   -242.704530
PG30   4678.674395 -19337.347575 -17447.081834   -340.935018
PG31   4686.400544  24117.145124   9402.765392    -83.399448
PG32  -4897.188207  14992.273380  21437.062676      3.035503
PJ01 -30935.641561  28301.702748   9772.824006   -335.693577
PJ02 -28695.651987  27025.054488  19951.177466     -0.067324
PJ03 -28341.998817  16355.207975 -21940.712327     -3.472213
PR01  11270.938116 -15304.528221 -17014.009777     71.053129
PR02  -9699.677208  -7035.855363 -22478.167328    455.729720
PR03 -21783.139751   4396.316368 -12439.959637     26.118575
PR04 -21363.535721  13183.895831   4513.918649     62.814978
PR05  -9007.412891  14490.264108  18953.211451     61.686117
PR07  22054.944924  -4761.413847  11972.365507    -41.499358
PR08  21401.360447 -13170.655599  -4402.953118    -55.872679
PR09   6636.579869  19358.315421 -15253.743589      9.401439
PR12   1919.527196 -25412.055413  -1347.812565    182.728003
PR13  -6407.511318 -19533.136184  15090.625614    -47.057353
PR14 -10970.647901  -1844.553116  22968.370079     58.047139
PR15  -9119.141937  16422.095974  17278.178855    106.597610
PR16   -998.879846  25413.197440    542.954562     -8.518217
PR17 -21792.799246  -9051.666663  -9730.684860    376.628034
PR18 -13370.249856   2723.319866 -21521.915878     57.291558
PR19   1147.563499  12767.736508 -22045.648332   -121.007117
PR20  17412.524882  16723.645935  -8275.638776   -427.330007
PR21  21508.985698   8420.514524  10790.133073   -168.375702
PR22  12540.262186  -3393.560248  21960.572310    -83.454014
PR23  -8459.966991 -15561.622296  18355.989631    346.887440
PR24 -17883.288305 -16567.674255   7565.933095     21.641895
PR25  10817.574297  -4611.312492 -22620.519711     -1.724636
EOF
